{
  "type": "FeatureCollection",
  "features": [
    {
      "type": "Feature",
      "properties": {
        "norad_id": 33724,
        "name": "FENGYUN 1C DEB",
        "group": "fengyun-1c-debris",
        "lat": -11.230833268793594,
        "lon": 172.5643248626603,
        "alt_km": 811.1937489232696,
        "timestamp": "2025-12-09T21:34:11.695254+00:00",
        "meta_object_name": "FENGYUN 1C DEB",
        "meta_object_id": "1999-025DHM",
        "meta_epoch": "2025-12-09T07:13:31.965024",
        "meta_mean_motion": 14.19636698,
        "meta_eccentricity": 0.0027263,
        "meta_inclination": 98.6042,
        "meta_ra_of_asc_node": 353.7064,
        "meta_arg_of_pericenter": 191.615,
        "meta_mean_anomaly": 186.7752,
        "meta_ephemeris_type": 0,
        "meta_classification_type": "U",
        "meta_norad_cat_id": 33724,
        "meta_element_set_no": 999,
        "meta_rev_at_epoch": 93913,
        "meta_bstar": 0.00073906,
        "meta_mean_motion_dot": 1.524e-05,
        "meta_mean_motion_ddot": 0,
        "tle_line1": "1 33724U 99025DHM 25343.30106441  .00001524  00000+0  73906-3 0  9999",
        "tle_line2": "2 33724  98.6042 353.7064 0027263 191.6150 186.7752 14.19636698939135"
      },
      "geometry": {
        "type": "Point",
        "coordinates": [
          172.5643248626603,
          -11.230833268793594
        ]
      }
    },
    {
      "type": "Feature",
      "properties": {
        "norad_id": 33726,
        "name": "FENGYUN 1C DEB",
        "group": "fengyun-1c-debris",
        "lat": -54.644833081216085,
        "lon": -84.174081425189,
        "alt_km": 985.2892884519124,
        "timestamp": "2025-12-09T21:34:11.695265+00:00",
        "meta_object_name": "FENGYUN 1C DEB",
        "meta_object_id": "1999-025DHP",
        "meta_epoch": "2025-12-09T04:03:01.278720",
        "meta_mean_motion": 14.14297509,
        "meta_eccentricity": 0.01929908,
        "meta_inclination": 98.6388,
        "meta_ra_of_asc_node": 107.4925,
        "meta_arg_of_pericenter": 41.301,
        "meta_mean_anomaly": 80.2474,
        "meta_ephemeris_type": 0,
        "meta_classification_type": "U",
        "meta_norad_cat_id": 33726,
        "meta_element_set_no": 999,
        "meta_rev_at_epoch": 91881,
        "meta_bstar": 0.00040884425,
        "meta_mean_motion_dot": 8.92e-06,
        "meta_mean_motion_ddot": 0,
        "tle_line1": "1 33726U 99025DHP 25343.16876480  .00000892  00000+0  40884-3 0  9998",
        "tle_line2": "2 33726  98.6388 107.4925 0192990  41.3010  80.2474 14.14297509918816"
      },
      "geometry": {
        "type": "Point",
        "coordinates": [
          -84.174081425189,
          -54.644833081216085
        ]
      }
    },
    {
      "type": "Feature",
      "properties": {
        "norad_id": 33728,
        "name": "FENGYUN 1C DEB",
        "group": "fengyun-1c-debris",
        "lat": 77.61981386323528,
        "lon": -94.53215908585751,
        "alt_km": 641.8184008141916,
        "timestamp": "2025-12-09T21:34:11.695275+00:00",
        "meta_object_name": "FENGYUN 1C DEB",
        "meta_object_id": "1999-025DHR",
        "meta_epoch": "2025-12-09T14:40:57.877536",
        "meta_mean_motion": 14.92559382,
        "meta_eccentricity": 0.01478655,
        "meta_inclination": 98.9792,
        "meta_ra_of_asc_node": 39.0567,
        "meta_arg_of_pericenter": 225.2044,
        "meta_mean_anomaly": 133.7071,
        "meta_ephemeris_type": 0,
        "meta_classification_type": "U",
        "meta_norad_cat_id": 33728,
        "meta_element_set_no": 999,
        "meta_rev_at_epoch": 98253,
        "meta_bstar": 0.00074423641,
        "meta_mean_motion_dot": 9.391e-05,
        "meta_mean_motion_ddot": 0,
        "tle_line1": "1 33728U 99025DHR 25343.61178099  .00009391  00000+0  74424-3 0  9991",
        "tle_line2": "2 33728  98.9792  39.0567 0147865 225.2044 133.7071 14.92559382982536"
      },
      "geometry": {
        "type": "Point",
        "coordinates": [
          -94.53215908585751,
          77.61981386323528
        ]
      }
    },
    {
      "type": "Feature",
      "properties": {
        "norad_id": 33730,
        "name": "FENGYUN 1C DEB",
        "group": "fengyun-1c-debris",
        "lat": -51.42314622984747,
        "lon": 52.91006293452152,
        "alt_km": 680.6795923260579,
        "timestamp": "2025-12-09T21:34:11.695286+00:00",
        "meta_object_name": "FENGYUN 1C DEB",
        "meta_object_id": "1999-025DHT",
        "meta_epoch": "2025-12-03T09:54:11.246688",
        "meta_mean_motion": 14.63205109,
        "meta_eccentricity": 0.00401027,
        "meta_inclination": 99.0564,
        "meta_ra_of_asc_node": 34.2592,
        "meta_arg_of_pericenter": 40.0931,
        "meta_mean_anomaly": 320.3216,
        "meta_ephemeris_type": 0,
        "meta_classification_type": "U",
        "meta_norad_cat_id": 33730,
        "meta_element_set_no": 999,
        "meta_rev_at_epoch": 95543,
        "meta_bstar": 0.0021836397,
        "meta_mean_motion_dot": 0.00011334,
        "meta_mean_motion_ddot": 0,
        "tle_line1": "1 33730U 99025DHT 25337.41263017  .00011334  00000+0  21836-2 0  9998",
        "tle_line2": "2 33730  99.0564  34.2592 0040102  40.0931 320.3216 14.63205109955434"
      },
      "geometry": {
        "type": "Point",
        "coordinates": [
          52.91006293452152,
          -51.42314622984747
        ]
      }
    },
    {
      "type": "Feature",
      "properties": {
        "norad_id": 33731,
        "name": "FENGYUN 1C DEB",
        "group": "fengyun-1c-debris",
        "lat": 26.003724424074246,
        "lon": -169.29559696576848,
        "alt_km": 907.3829718718653,
        "timestamp": "2025-12-09T21:34:11.695295+00:00",
        "meta_object_name": "FENGYUN 1C DEB",
        "meta_object_id": "1999-025DHU",
        "meta_epoch": "2025-12-09T00:11:54.994560",
        "meta_mean_motion": 13.95318659,
        "meta_eccentricity": 0.0129247,
        "meta_inclination": 99.4452,
        "meta_ra_of_asc_node": 5.1348,
        "meta_arg_of_pericenter": 66.1821,
        "meta_mean_anomaly": 295.2827,
        "meta_ephemeris_type": 0,
        "meta_classification_type": "U",
        "meta_norad_cat_id": 33731,
        "meta_element_set_no": 999,
        "meta_rev_at_epoch": 90397,
        "meta_bstar": 0.0015258662,
        "meta_mean_motion_dot": 2.169e-05,
        "meta_mean_motion_ddot": 0,
        "tle_line1": "1 33731U 99025DHU 25343.00827540  .00002169  00000+0  15259-2 0  9996",
        "tle_line2": "2 33731  99.4452   5.1348 0129247  66.1821 295.2827 13.95318659903975"
      },
      "geometry": {
        "type": "Point",
        "coordinates": [
          -169.29559696576848,
          26.003724424074246
        ]
      }
    },
    {
      "type": "Feature",
      "properties": {
        "norad_id": 33733,
        "name": "FENGYUN 1C DEB",
        "group": "fengyun-1c-debris",
        "lat": 54.00096078784194,
        "lon": -98.16297251240697,
        "alt_km": 748.7360232928086,
        "timestamp": "2025-12-09T21:34:11.695306+00:00",
        "meta_object_name": "FENGYUN 1C DEB",
        "meta_object_id": "1999-025DHW",
        "meta_epoch": "2025-12-08T04:50:49.402752",
        "meta_mean_motion": 14.30867233,
        "meta_eccentricity": 0.00809024,
        "meta_inclination": 99.099,
        "meta_ra_of_asc_node": 67.3183,
        "meta_arg_of_pericenter": 183.3026,
        "meta_mean_anomaly": 206.7882,
        "meta_ephemeris_type": 0,
        "meta_classification_type": "U",
        "meta_norad_cat_id": 33733,
        "meta_element_set_no": 999,
        "meta_rev_at_epoch": 90383,
        "meta_bstar": 0.0048281586,
        "meta_mean_motion_dot": 0.00013108,
        "meta_mean_motion_ddot": 0,
        "tle_line1": "1 33733U 99025DHW 25342.20196068  .00013108  00000+0  48282-2 0  9990",
        "tle_line2": "2 33733  99.0990  67.3183 0080902 183.3026 206.7882 14.30867233903830"
      },
      "geometry": {
        "type": "Point",
        "coordinates": [
          -98.16297251240697,
          54.00096078784194
        ]
      }
    },
    {
      "type": "Feature",
      "properties": {
        "norad_id": 33737,
        "name": "FENGYUN 1C DEB",
        "group": "fengyun-1c-debris",
        "lat": -64.05292451287077,
        "lon": -19.49585384914291,
        "alt_km": 825.2287739819785,
        "timestamp": "2025-12-09T21:34:11.695317+00:00",
        "meta_object_name": "FENGYUN 1C DEB",
        "meta_object_id": "1999-025DJA",
        "meta_epoch": "2025-12-09T11:58:27.643584",
        "meta_mean_motion": 14.02979503,
        "meta_eccentricity": 0.01283678,
        "meta_inclination": 98.3383,
        "meta_ra_of_asc_node": 177.6795,
        "meta_arg_of_pericenter": 292.3633,
        "meta_mean_anomaly": 95.7478,
        "meta_ephemeris_type": 0,
        "meta_classification_type": "U",
        "meta_norad_cat_id": 33737,
        "meta_element_set_no": 999,
        "meta_rev_at_epoch": 88695,
        "meta_bstar": 0.0019192187,
        "meta_mean_motion_dot": 3.164e-05,
        "meta_mean_motion_ddot": 0,
        "tle_line1": "1 33737U 99025DJA 25343.49893106  .00003164  00000+0  19192-2 0  9992",
        "tle_line2": "2 33737  98.3383 177.6795 0128367 292.3633  95.7478 14.02979503886952"
      },
      "geometry": {
        "type": "Point",
        "coordinates": [
          -19.49585384914291,
          -64.05292451287077
        ]
      }
    }
  ]
}